LEMUR-2-AMANDA-SVANTE   
1 48269U 21034B   26068.77637527  .00030872  00000+0  11134-2 0  9996
2 48269  97.5829 144.8625 0002703 205.4721 154.6385 15.28469003265849
STARLINK-31842          
1 59672U 24084U   26068.30748548 -.00000113  00000+0  54137-5 0  9998
2 59672  43.0059  40.5821 0001090 258.4725 101.6004 15.27578838104354
